[{"OBJECT_NAME":"HELIOS 1B","OBJECT_ID":"1999-064A","EPOCH":"2026-03-12T06:28:20.215488","MEAN_MOTION":14.87711208,"ECCENTRICITY":0.00024418,"INCLINATION":98.1687,"RA_OF_ASC_NODE":333.5885,"ARG_OF_PERICENTER":71.6975,"MEAN_ANOMALY":288.4506,"EPHEMERIS_TYPE":0,"CLASSIFICATION_TYPE":"U","NORAD_CAT_ID":25977,"ELEMENT_SET_NO":999,"REV_AT_EPOCH":68564,"BSTAR":0.00026956233,"MEAN_MOTION_DOT":2.398e-5,"MEAN_MOTION_DDOT":0},{"OBJECT_NAME":"TERRA","OBJECT_ID":"1999-068A","EPOCH":"2026-03-12T05:49:26.148000","MEAN_MOTION":14.61017918,"ECCENTRICITY":0.00028532,"INCLINATION":97.9589,"RA_OF_ASC_NODE":124.5798,"ARG_OF_PERICENTER":145.6884,"MEAN_ANOMALY":240.8775,"EPHEMERIS_TYPE":0,"CLASSIFICATION_TYPE":"U","NORAD_CAT_ID":25994,"ELEMENT_SET_NO":999,"REV_AT_EPOCH":39545,"BSTAR":0.00012010011,"MEAN_MOTION_DOT":5.45e-6,"MEAN_MOTION_DDOT":0},{"OBJECT_NAME":"SL-16 R/B","OBJECT_ID":"2000-006B","EPOCH":"2026-03-12T06:33:34.257888","MEAN_MOTION":14.15825399,"ECCENTRICITY":0.00166272,"INCLINATION":71.0006,"RA_OF_ASC_NODE":92.4046,"ARG_OF_PERICENTER":186.4244,"MEAN_ANOMALY":173.6669,"EPHEMERIS_TYPE":0,"CLASSIFICATION_TYPE":"U","NORAD_CAT_ID":26070,"ELEMENT_SET_NO":999,"REV_AT_EPOCH":34892,"BSTAR":-6.1085011e-5,"MEAN_MOTION_DOT":-1.68e-6,"MEAN_MOTION_DDOT":0},{"OBJECT_NAME":"TITAN 4B R/B","OBJECT_ID":"2000-047B","EPOCH":"2026-03-12T06:44:02.722848","MEAN_MOTION":15.0959216,"ECCENTRICITY":0.00386614,"INCLINATION":67.9902,"RA_OF_ASC_NODE":33.2245,"ARG_OF_PERICENTER":32.3719,"MEAN_ANOMALY":327.9791,"EPHEMERIS_TYPE":0,"CLASSIFICATION_TYPE":"U","NORAD_CAT_ID":26474,"ELEMENT_SET_NO":999,"REV_AT_EPOCH":39330,"BSTAR":0.00032907878,"MEAN_MOTION_DOT":5.26e-5,"MEAN_MOTION_DDOT":0},{"OBJECT_NAME":"ENVISAT","OBJECT_ID":"2002-009A","EPOCH":"2026-03-12T08:15:35.055936","MEAN_MOTION":14.39038145,"ECCENTRICITY":0.00013085,"INCLINATION":98.3732,"RA_OF_ASC_NODE":24.8784,"ARG_OF_PERICENTER":83.1981,"MEAN_ANOMALY":83.677,"EPHEMERIS_TYPE":0,"CLASSIFICATION_TYPE":"U","NORAD_CAT_ID":27386,"ELEMENT_SET_NO":999,"REV_AT_EPOCH":25955,"BSTAR":6.9832084e-5,"MEAN_MOTION_DOT":1.73e-6,"MEAN_MOTION_DDOT":0},{"OBJECT_NAME":"IDEFIX & ARIANE 42P R/B","OBJECT_ID":"2002-021B","EPOCH":"2026-03-12T07:01:25.849920","MEAN_MOTION":14.31028371,"ECCENTRICITY":0.00117292,"INCLINATION":98.587,"RA_OF_ASC_NODE":9.8678,"ARG_OF_PERICENTER":174.4851,"MEAN_ANOMALY":185.6463,"EPHEMERIS_TYPE":0,"CLASSIFICATION_TYPE":"U","NORAD_CAT_ID":27422,"ELEMENT_SET_NO":999,"REV_AT_EPOCH":24439,"BSTAR":0.00015072644,"MEAN_MOTION_DOT":3.53e-6,"MEAN_MOTION_DDOT":0},{"OBJECT_NAME":"AQUA","OBJECT_ID":"2002-022A","EPOCH":"2026-03-12T07:03:15.187392","MEAN_MOTION":14.61984497,"ECCENTRICITY":5.735e-5,"INCLINATION":98.4178,"RA_OF_ASC_NODE":38.7063,"ARG_OF_PERICENTER":90.7421,"MEAN_ANOMALY":15.7037,"EPHEMERIS_TYPE":0,"CLASSIFICATION_TYPE":"U","NORAD_CAT_ID":27424,"ELEMENT_SET_NO":999,"REV_AT_EPOCH":26911,"BSTAR":0.00027191246,"MEAN_MOTION_DOT":1.314e-5,"MEAN_MOTION_DDOT":0},{"OBJECT_NAME":"CZ-4B R/B","OBJECT_ID":"2002-024C","EPOCH":"2026-03-12T02:56:29.750784","MEAN_MOTION":14.14548047,"ECCENTRICITY":0.0050364,"INCLINATION":98.8834,"RA_OF_ASC_NODE":124.5169,"ARG_OF_PERICENTER":17.3131,"MEAN_ANOMALY":36.9194,"EPHEMERIS_TYPE":0,"CLASSIFICATION_TYPE":"U","NORAD_CAT_ID":27432,"ELEMENT_SET_NO":999,"REV_AT_EPOCH":22958,"BSTAR":4.5915595e-5,"MEAN_MOTION_DOT":4.5e-7,"MEAN_MOTION_DDOT":0},{"OBJECT_NAME":"MIDORI II (ADEOS-II)","OBJECT_ID":"2002-056A","EPOCH":"2026-03-11T21:41:32.422272","MEAN_MOTION":14.29287029,"ECCENTRICITY":0.0001508,"INCLINATION":98.7769,"RA_OF_ASC_NODE":29.3966,"ARG_OF_PERICENTER":40.3821,"MEAN_ANOMALY":319.7472,"EPHEMERIS_TYPE":0,"CLASSIFICATION_TYPE":"U","NORAD_CAT_ID":27597,"ELEMENT_SET_NO":999,"REV_AT_EPOCH":21061,"BSTAR":0.00016071,"MEAN_MOTION_DOT":3.64e-6,"MEAN_MOTION_DDOT":0},{"OBJECT_NAME":"H-2A R/B","OBJECT_ID":"2002-056E","EPOCH":"2026-03-11T20:52:15.156768","MEAN_MOTION":14.33762249,"ECCENTRICITY":0.00706322,"INCLINATION":98.3205,"RA_OF_ASC_NODE":31.1522,"ARG_OF_PERICENTER":154.2148,"MEAN_ANOMALY":261.2108,"EPHEMERIS_TYPE":0,"CLASSIFICATION_TYPE":"U","NORAD_CAT_ID":27601,"ELEMENT_SET_NO":999,"REV_AT_EPOCH":21442,"BSTAR":0.00012062239,"MEAN_MOTION_DOT":3.03e-6,"MEAN_MOTION_DDOT":0},{"OBJECT_NAME":"CZ-4B R/B","OBJECT_ID":"2003-049C","EPOCH":"2026-03-11T23:55:14.664000","MEAN_MOTION":14.55022487,"ECCENTRICITY":0.00473336,"INCLINATION":98.6879,"RA_OF_ASC_NODE":65.9919,"ARG_OF_PERICENTER":223.7086,"MEAN_ANOMALY":136.0358,"EPHEMERIS_TYPE":0,"CLASSIFICATION_TYPE":"U","NORAD_CAT_ID":28059,"ELEMENT_SET_NO":999,"REV_AT_EPOCH":18693,"BSTAR":0.00011034967,"MEAN_MOTION_DOT":4.31e-6,"MEAN_MOTION_DDOT":0},{"OBJECT_NAME":"CZ-2C R/B","OBJECT_ID":"2004-012C","EPOCH":"2026-03-12T04:00:53.408448","MEAN_MOTION":15.64833079,"ECCENTRICITY":0.0012921,"INCLINATION":97.7224,"RA_OF_ASC_NODE":136.6945,"ARG_OF_PERICENTER":299.2495,"MEAN_ANOMALY":60.7471,"EPHEMERIS_TYPE":0,"CLASSIFICATION_TYPE":"U","NORAD_CAT_ID":28222,"ELEMENT_SET_NO":999,"REV_AT_EPOCH":20466,"BSTAR":0.00061961885,"MEAN_MOTION_DOT":0.00060823,"MEAN_MOTION_DDOT":0},{"OBJECT_NAME":"SL-16 R/B","OBJECT_ID":"2004-021B","EPOCH":"2026-03-11T20:40:10.851744","MEAN_MOTION":14.1459711,"ECCENTRICITY":0.00041759,"INCLINATION":70.9996,"RA_OF_ASC_NODE":227.935,"ARG_OF_PERICENTER":6.1397,"MEAN_ANOMALY":353.9776,"EPHEMERIS_TYPE":0,"CLASSIFICATION_TYPE":"U","NORAD_CAT_ID":28353,"ELEMENT_SET_NO":999,"REV_AT_EPOCH":12314,"BSTAR":-0.00011319916,"MEAN_MOTION_DOT":-2.65e-6,"MEAN_MOTION_DDOT":0},{"OBJECT_NAME":"CZ-4B R/B","OBJECT_ID":"2004-035C","EPOCH":"2026-03-12T07:55:56.570304","MEAN_MOTION":15.29114318,"ECCENTRICITY":0.0030709,"INCLINATION":97.3502,"RA_OF_ASC_NODE":105.5415,"ARG_OF_PERICENTER":321.7707,"MEAN_ANOMALY":38.1355,"EPHEMERIS_TYPE":0,"CLASSIFICATION_TYPE":"U","NORAD_CAT_ID":28415,"ELEMENT_SET_NO":999,"REV_AT_EPOCH":18031,"BSTAR":0.00029994893,"MEAN_MOTION_DOT":8.521e-5,"MEAN_MOTION_DDOT":0},{"OBJECT_NAME":"CZ-2C R/B","OBJECT_ID":"2004-046B","EPOCH":"2026-03-12T06:58:04.088640","MEAN_MOTION":14.26993117,"ECCENTRICITY":0.01400224,"INCLINATION":98.1981,"RA_OF_ASC_NODE":346.1125,"ARG_OF_PERICENTER":146.7804,"MEAN_ANOMALY":214.2266,"EPHEMERIS_TYPE":0,"CLASSIFICATION_TYPE":"U","NORAD_CAT_ID":28480,"ELEMENT_SET_NO":999,"REV_AT_EPOCH":10887,"BSTAR":6.8606244e-5,"MEAN_MOTION_DOT":1.45e-6,"MEAN_MOTION_DDOT":0},{"OBJECT_NAME":"ARIANE 5 R/B","OBJECT_ID":"2004-049H","EPOCH":"2026-03-12T04:37:24.954816","MEAN_MOTION":14.85271369,"ECCENTRICITY":0.00837634,"INCLINATION":98.2631,"RA_OF_ASC_NODE":239.7433,"ARG_OF_PERICENTER":343.7925,"MEAN_ANOMALY":16.0612,"EPHEMERIS_TYPE":0,"CLASSIFICATION_TYPE":"U","NORAD_CAT_ID":28499,"ELEMENT_SET_NO":999,"REV_AT_EPOCH":14616,"BSTAR":0.00011379225,"MEAN_MOTION_DOT":9.74e-6,"MEAN_MOTION_DDOT":0},{"OBJECT_NAME":"CZ-2D R/B","OBJECT_ID":"2005-024B","EPOCH":"2026-03-12T00:26:13.956576","MEAN_MOTION":15.60374594,"ECCENTRICITY":0.0005489,"INCLINATION":97.36,"RA_OF_ASC_NODE":86.2502,"ARG_OF_PERICENTER":40.4701,"MEAN_ANOMALY":319.6963,"EPHEMERIS_TYPE":0,"CLASSIFICATION_TYPE":"U","NORAD_CAT_ID":28738,"ELEMENT_SET_NO":999,"REV_AT_EPOCH":14014,"BSTAR":0.00052957681,"MEAN_MOTION_DOT":0.00043465,"MEAN_MOTION_DDOT":0}]
